NORAD_CAT_ID,OBJECT_NAME,OBJECT_TYPE,EPOCH,MEAN_MOTION,ECCENTRICITY,INCLINATION,RA_OF_ASC_NODE,ARG_OF_PERICENTER,MEAN_ANOMALY,BSTAR,MEAN_MOTION_DOT,MEAN_MOTION_DDOT,TLE_LINE0,TLE_LINE1,TLE_LINE2,SEMIMAJOR_AXIS,PERIOD,APOGEE,PERIGEE,DECAYED
53564.0,STARLINK-4577,PAYLOAD,2023-10-11 14:52:58,15.08843549,0.0001445,53.2184,44.9673,96.9406,263.1751,2.4067e-05,9.5e-07,0.0,0 STARLINK-4577,1 53564U 22101AP  23284.62011727  .00000095  00000-0  24067-4 0  9991,2 53564  53.2184  44.9673 0001445  96.9406 263.1751 15.08843549 63583,6917.87,95.437,540.734,538.735,0.0
53564.0,STARLINK-4577,PAYLOAD,2023-10-12 03:36:03,15.08835013,0.0001562,53.2177,42.5911,96.522,263.5951,3.5054e-06,-2.32e-06,0.0,0 STARLINK-4577,1 53564U 22101AP  23285.15004324 -.00000232  00000-0  35054-5 0  9998,2 53564  53.2177  42.5911 0001562  96.5220 263.5951 15.08835013 63666,6917.896,95.438,540.841,538.68,0.0
53564.0,STARLINK-4577,PAYLOAD,2023-10-12 14:43:45,15.08850608,0.0001371,53.2171,40.5094,83.8033,276.3115,0.00010752,1.424e-05,0.0,0 STARLINK-4577,1 53564U 22101AP  23285.61371550  .00001424  00000-0  10752-3 0  9996,2 53564  53.2171  40.5094 0001371  83.8033 276.3115 15.08850608 63738,6917.848,95.437,540.661,538.765,0.0
53564.0,STARLINK-4577,PAYLOAD,2023-10-13 12:59:09,15.08837361,0.0001488,53.2175,36.3449,92.3419,267.7743,9.0454e-05,1.152e-05,0.0,0 STARLINK-4577,1 53564U 22101AP  23286.54108322  .00001152  00000-0  90454-4 0  9990,2 53564  53.2175  36.3449 0001488  92.3419 267.7743 15.08837361 63878,6917.888,95.438,540.783,538.724,0.0
53564.0,STARLINK-4577,PAYLOAD,2023-10-13 14:34:32,15.08842191,0.0001297,53.2183,36.0511,79.8076,280.3063,0.00016647,2.363e-05,0.0,0 STARLINK-4577,1 53564U 22101AP  23286.60732207  .00002363  00000-0  16647-3 0  9998,2 53564  53.2183  36.0511 0001297  79.8076 280.3063 15.08842191 63885,6917.874,95.437,540.636,538.841,0.0
53564.0,STARLINK-4577,PAYLOAD,2023-10-14 11:14:32,15.08853609,0.0001282,53.2188,32.184,92.9289,267.185,0.00026909,3.999e-05,0.0,0 STARLINK-4577,1 53564U 22101AP  23287.46843478  .00003999  00000-0  26909-3 0  9994,2 53564  53.2188  32.1840 0001282  92.9289 267.1850 15.08853609 64017,6917.839,95.437,540.591,538.817,0.0
53564.0,STARLINK-4577,PAYLOAD,2023-10-14 12:49:55,15.08853077,0.0001484,53.2179,31.889,91.502,268.6142,0.0002452,3.618e-05,0.0,0 STARLINK-4577,1 53564U 22101AP  23287.53467555  .00003618  00000-0  24520-3 0  9995,2 53564  53.2179  31.8890 0001484  91.5020 268.6142 15.08853077 64020,6917.84,95.437,540.732,538.679,0.0
53564.0,STARLINK-4577,PAYLOAD,2023-10-14 14:25:19,15.08852986,0.0001352,53.2182,31.591,79.3034,280.8111,0.00024287,3.581e-05,0.0,0 STARLINK-4577,1 53564U 22101AP  23287.60091507  .00003581  00000-0  24287-3 0  9992,2 53564  53.2182  31.5910 0001352  79.3034 280.8111 15.08852986 64038,6917.841,95.437,540.641,538.77,0.0
53564.0,STARLINK-4577,PAYLOAD,2023-10-14 23:57:38,15.08840535,0.0001547,53.2188,29.8056,88.3379,271.7791,5.7159e-06,-1.97e-06,0.0,0 STARLINK-4577,1 53564U 22101AP  23287.99836042 -.00000197  00000-0  57159-5 0  9992,2 53564  53.2188  29.8056 0001547  88.3379 271.7791 15.08840535 64099,6917.879,95.438,540.814,538.674,0.0
53564.0,STARLINK-4577,PAYLOAD,2023-10-15 11:05:21,15.08819357,0.0001311,53.2182,27.7265,91.7929,268.3213,-0.00012649,-2.299e-05,0.0,0 STARLINK-4577,1 53564U 22101AP  23288.46205434 -.00002299  00000-0 -12649-3 0  9999,2 53564  53.2182  27.7265 0001311  91.7929 268.3213 15.08819357 64167,6917.943,95.439,540.715,538.902,0.0
53564.0,STARLINK-4577,PAYLOAD,2023-10-15 14:16:07,15.08827773,0.000134,53.2179,27.1316,90.6676,269.4469,-0.00011169,-2.064e-05,0.0,0 STARLINK-4577,1 53564U 22101AP  23288.59453113 -.00002064  00000-0 -11169-3 0  9998,2 53564  53.2179  27.1316 0001340  90.6676 269.4469 15.08827773 64181,6917.918,95.438,540.71,538.856,0.0
53564.0,STARLINK-4577,PAYLOAD,2023-10-15 23:48:26,15.08835077,0.0001458,53.2192,25.3444,84.6865,275.4293,-8.2366e-05,-1.598e-05,0.0,0 STARLINK-4577,1 53564U 22101AP  23288.99197008 -.00001598  00000-0 -82366-4 0  9999,2 53564  53.2192  25.3444 0001458  84.6865 275.4293 15.08835077 64246,6917.895,95.438,540.769,538.752,0.0
53564.0,STARLINK-4577,PAYLOAD,2023-10-16 14:06:53,15.08851141,0.0001449,53.2188,22.6697,85.9366,274.1791,0.000172,2.451e-05,0.0,0 STARLINK-4577,1 53564U 22101AP  23289.58812457  .00002451  00000-0  17200-3 0  9998,2 53564  53.2188  22.6697 0001449  85.9366 274.1791 15.08851141 64330,6917.846,95.437,540.714,538.709,0.0
53564.0,STARLINK-4577,PAYLOAD,2023-10-16 15:42:17,15.08851258,0.0001465,53.2181,22.3726,90.7855,269.3305,0.00046899,7.186e-05,0.0,0 STARLINK-4577,1 53564U 22101AP  23289.65436685  .00007186  00000-0  46899-3 0  9997,2 53564  53.2181  22.3726 0001465  90.7855 269.3305 15.08851258 64345,6917.846,95.437,540.724,538.698,0.0
53564.0,STARLINK-4577,PAYLOAD,2023-10-17 10:46:55,15.08848595,0.000172,53.2182,18.8047,100.8696,259.2489,0.00046849,7.178e-05,0.0,0 STARLINK-4577,1 53564U 22101AP  23290.44925073  .00007178  00000-0  46849-3 0  9996,2 53564  53.2182  18.8047 0001720 100.8696 259.2489 15.08848595 64466,6917.854,95.437,540.909,538.529,0.0
53564.0,STARLINK-4577,PAYLOAD,2023-10-17 12:22:18,15.08853122,0.0001673,53.2187,18.5067,102.9955,257.1224,0.00046287,7.089e-05,0.0,0 STARLINK-4577,1 53564U 22101AP  23290.51548860  .00007089  00000-0  46287-3 0  9996,2 53564  53.2187  18.5067 0001673 102.9955 257.1224 15.08853122 64475,6917.84,95.437,540.863,538.548,0.0
53564.0,STARLINK-4577,PAYLOAD,2023-10-17 23:30:00,15.08848511,0.0001589,53.2181,16.4241,96.4584,263.6589,0.00029924,4.479e-05,0.0,0 STARLINK-4577,1 53564U 22101AP  23290.97916847  .00004479  00000-0  29924-3 0  9999,2 53564  53.2181  16.4241 0001589  96.4584 263.6589 15.08848511 64541,6917.854,95.437,540.819,538.62,0.0
53564.0,STARLINK-4577,PAYLOAD,2023-10-18 10:37:42,15.08845931,0.0001797,53.2198,14.3422,103.8624,256.2568,0.00032466,4.884e-05,0.0,0 STARLINK-4577,1 53564U 22101AP  23291.44284983  .00004884  00000-0  32466-3 0  9996,2 53564  53.2198  14.3422 0001797 103.8624 256.2568 15.08845931 64612,6917.862,95.437,540.97,538.484,0.0
53564.0,STARLINK-4577,PAYLOAD,2023-10-18 15:23:51,15.08847315,0.0001682,53.2189,13.4507,89.613,270.5055,0.00026305,3.902e-05,0.0,0 STARLINK-4577,1 53564U 22101AP  23291.64156944  .00003902  00000-0  26305-3 0  9998,2 53564  53.2189  13.4507 0001682  89.6130 270.5055 15.08847315 64643,6917.858,95.437,540.887,538.559,0.0
53564.0,STARLINK-4577,PAYLOAD,2023-10-19 10:28:28,15.08856317,0.0001784,53.2192,9.8821,89.285,270.8347,0.00059545,9.205e-05,0.0,0 STARLINK-4577,1 53564U 22101AP  23292.43644629  .00009205  00000-0  59545-3 0  9992,2 53564  53.2192   9.8821 0001784  89.2850 270.8347 15.08856317 64765,6917.831,95.437,540.93,538.461,0.0
53564.0,STARLINK-4577,PAYLOAD,2023-10-19 15:14:38,15.08866409,0.0001815,53.2193,8.9888,90.1735,269.9465,0.00081142,0.00012659,0.0,0 STARLINK-4577,1 53564U 22101AP  23292.63516218  .00012659  00000-0  81142-3 0  9991,2 53564  53.2193   8.9888 0001815  90.1735 269.9465 15.08866409 64793,6917.8,95.436,540.92,538.409,0.0
53564.0,STARLINK-4577,PAYLOAD,2023-10-20 11:54:39,15.08838485,0.0001501,53.2193,5.1232,92.1317,267.9847,0.00016985,2.416e-05,0.0,0 STARLINK-4577,1 53564U 22101AP  23293.49628781  .00002416  00000-0  16985-3 0  9998,2 53564  53.2193   5.1232 0001501  92.1317 267.9847 15.08838485 64925,6917.885,95.438,540.788,538.712,0.0
53564.0,STARLINK-4577,PAYLOAD,2023-10-21 11:45:26,15.08839701,0.0001574,53.219,0.6703,101.1324,258.9846,0.00044054,6.73e-05,0.0,0 STARLINK-4577,1 53564U 22101AP  23294.48989379  .00006730  00000-0  44054-3 0  9992,2 53564  53.2190   0.6703 0001574 101.1324 258.9846 15.08839701 65072,6917.881,95.438,540.835,538.657,0.0
53564.0,STARLINK-4577,PAYLOAD,2023-10-21 21:17:45,15.08835824,0.0001548,53.2193,358.887,96.9912,263.1256,0.00045189,6.91e-05,0.0,0 STARLINK-4577,1 53564U 22101AP  23294.88733611  .00006910  00000-0  45189-3 0  9992,2 53564  53.2193 358.8870 0001548  96.9912 263.1256 15.08835824 65135,6917.893,95.438,540.829,538.687,0.0
53564.0,STARLINK-4577,PAYLOAD,2023-10-22 13:11:37,15.08844133,0.0001707,53.2189,355.9075,83.1094,277.0093,0.00025231,3.73e-05,0.0,0 STARLINK-4577,1 53564U 22101AP  23295.54973389  .00003730  00000-0  25231-3 0  9997,2 53564  53.2189 355.9075 0001707  83.1094 277.0093 15.08844133 65238,6917.868,95.437,540.914,538.552,0.0
53564.0,STARLINK-4577,PAYLOAD,2023-10-22 21:08:32,15.08838825,0.0001836,53.2194,354.4188,83.5528,276.5673,0.00011218,1.498e-05,0.0,0 STARLINK-4577,1 53564U 22101AP  23295.88093629  .00001498  00000-0  11218-3 0  9993,2 53564  53.2194 354.4188 0001836  83.5528 276.5673 15.08838825 65286,6917.884,95.438,541.019,538.479,0.0
53564.0,STARLINK-4577,PAYLOAD,2023-10-23 20:59:20,15.08838736,0.000162,53.217,349.9641,85.7053,274.4124,9.6845e-05,1.254e-05,0.0,0 STARLINK-4577,1 53564U 22101AP  23296.87453888  .00001254  00000-0  96845-4 0  9990,2 53564  53.2170 349.9641 0001620  85.7053 274.4124 15.08838736 65437,6917.884,95.438,540.87,538.629,0.0
53564.0,STARLINK-4577,PAYLOAD,2023-10-24 03:20:52,15.08838573,0.0001702,53.2179,348.7742,85.742,274.3767,0.00011492,1.541e-05,0.0,0 STARLINK-4577,1 53564U 22101AP  23297.13950006  .00001541  00000-0  11492-3 0  9997,2 53564  53.2179 348.7742 0001702  85.7420 274.3767 15.08838573 65479,6917.885,95.438,540.927,538.572,0.0
53564.0,STARLINK-4577,PAYLOAD,2023-10-24 11:17:48,15.08843385,0.0001557,53.2174,347.2856,88.6575,271.4595,9.5256e-05,1.228e-05,0.0,0 STARLINK-4577,1 53564U 22101AP  23297.47069842  .00001228  00000-0  95256-4 0  9996,2 53564  53.2174 347.2856 0001557  88.6575 271.4595 15.08843385 65525,6917.87,95.437,540.812,538.658,0.0
53564.0,STARLINK-4577,PAYLOAD,2023-10-25 09:33:12,15.08846239,0.0001542,53.2173,343.1221,90.4977,269.6192,0.00017959,2.572e-05,0.0,0 STARLINK-4577,1 53564U 22101AP  23298.39805856  .00002572  00000-0  17959-3 0  9997,2 53564  53.2173 343.1221 0001542  90.4977 269.6192 15.08846239 65664,6917.861,95.437,540.793,538.66,0.0
